#aV2021  4 10  0  0  0.00000000     288 DD+AD WGS84 FIT  NGA
## 2152 518400.00000000   300.00000000 59314 0.0000000000000
+   32     1  2  3  4  5  6  7  8  9 10 11 12 13 14 15 16 17
+         18 19 20 21 22 23 24 25 26 27 28 29 30 31 32  0  0
+          0  0  0  0  0  0  0  0  0  0  0  0  0  0  0  0  0
+          0  0  0  0  0  0  0  0  0  0  0  0  0  0  0  0  0
+          0  0  0  0  0  0  0  0  0  0  0  0  0  0  0  0  0
++         2  2  2  2  2  2  2  2  2  2  2  2  2  2  2  2  2
++         2  2  2  2  2  2  2  2  2  2  2  2  2  2  2  0  0
++         0  0  0  0  0  0  0  0  0  0  0  0  0  0  0  0  0
++         0  0  0  0  0  0  0  0  0  0  0  0  0  0  0  0  0
++         0  0  0  0  0  0  0  0  0  0  0  0  0  0  0  0  0
%c cc cc ccc ccc cccc cccc cccc cccc ccccc ccccc ccccc ccccc
%c cc cc ccc ccc cccc cccc cccc cccc ccccc ccccc ccccc ccccc
%f  0.0000000  0.000000000  0.00000000000  0.000000000000000
%f  0.0000000  0.000000000  0.00000000000  0.000000000000000
%i    0    0    0    0      0      0      0      0         0
%i    0    0    0    0      0      0      0      0         0
/*      NGA, ST. LOUIS,MO.                                  
/*   EPHEMERIS COMPUTED FROM 2 DAYS OF DATA                 
/*   EPOCHA v5 SMOOTHER                                     
/*   G2139 IERS2010 SATIGS SATAPC                           
*  2021  4 10  4 45  0.00000000
P  1 -12120.709990  21234.745688 -10176.876875    720.143702                    
V  1 -10488.860578   7344.622224  28855.079823     -0.097665                    
P  2  20638.254051 -11719.112041 -11310.865396   -594.273311                    
V  2  -8194.508730  13223.334885 -27056.258571     -0.034873                    
P  3  -4467.823125  14414.992138 -21933.476864   -132.556369                    
V  3 -26636.477519  -7371.944132    690.156146     -0.107071                    
P  4  -2765.980387  23794.078093 -11408.327262   -191.016690                    
V  4  -5608.465625 -13611.746473 -27067.134014     -0.019877                    
P  5  20912.422421  -6114.204092  15167.629343    -38.654023                    
V  5  18482.965052   6447.633521 -22476.956884     -0.010879                    
P  6  17700.870573    970.598805 -19737.529178      6.155583                    
V  6 -17206.409386  18319.179687 -14426.338817      0.026984                    
P  7   1002.905019  18299.133744  19390.793445    117.385526                    
V  7 -18358.874002  15676.938600 -14586.910269      0.116903                    
P  8  -7822.314029  17804.530077  17942.569716    -16.955110                    
V  8  -7795.413251 -21587.422014  18315.466933     -0.014085                    
P  9   6118.509865  25791.586531  -1538.550672   -337.791589                    
V  9  -3460.011890   -985.287944 -31526.672388     -0.027918                    
P 10 -22504.913860 -11890.947534   8168.478434    -98.881880                    
V 10  10346.197715    550.380640  29467.621444     -0.077935                    
P 11  -7870.029023  25582.060357   -196.103670     25.356440                    
V 11  -3673.311166  -1431.346850  30464.153287      0.105826                    
P 12   8568.965108 -12766.234774 -21897.522926    -25.759276                    
V 12  25509.915239   9374.604758   4715.838821     -0.050896                    
P 13  13427.626508  -8829.748441  20990.258240    118.102126                    
V 13   4162.651584  26651.260069   8620.279335      0.045842                    
P 14  21326.137786  13267.607158   8661.374690     97.059633                    
V 14 -11303.467458   -826.165772  29035.587952     -0.023759                    
P 15   6221.087406 -18972.645447  16982.596532   -157.219369                    
V 15  10568.562442  20030.470534  18479.177711      0.025976                    
P 16 -23232.659476    788.861734  13017.703933   -307.337384                    
V 16 -15092.830762  -7416.752035 -25547.075430     -0.059105                    
P 17  12993.079516  18341.979223 -13720.214588    423.927582                    
V 17   1793.805772  18107.684735  25130.561477      0.061160                    
P 18  -3835.208769 -16079.475275  20768.399484    351.608604                    
V 18  19715.870577 -17548.672153 -10000.904664      0.000960                    
P 19  14941.628835  10193.549272 -19770.192415    -14.944734                    
V 19   2826.968094  24251.371352  14755.471463      0.049882                    
P 20  -2996.482040 -15929.723364  21026.615188    523.330145                    
V 20  26713.678641   2748.071862   5593.888773     -0.003929                    
P 21 -16816.862974  20163.638447   -801.070543    109.846592                    
V 21  -3792.247572   -794.158951  31963.181339      0.028544                    
P 22 -14273.562605  11703.930575 -18835.215860   -641.373968                    
V 22 -23832.841109  -5917.301924  14418.035327      0.086627                    
P 23 -13698.083693 -15370.483175  16784.267769    114.281028                    
V 23  21126.531129   3394.430455  20282.039842     -0.019254                    
P 24  14573.089222 -21548.109161  -4433.964593     -0.043480                    
V 24   6465.113845  -1531.685630  30754.084264     -0.005008                    
P 25  -6534.298768 -16386.845538 -20198.692808    115.659677                    
V 25  24355.705629   5659.947701 -12366.674837      0.072942                    
P 26 -26250.273527  -3279.005463   3605.020088     70.083678                    
V 26  -3812.396591  -4085.490616 -30721.064611      0.051865                    
P 27 -13782.295265   5577.303529  21819.845055   -109.973498                    
V 27  -7483.238514 -27078.859795   2537.750438     -0.068957                    
P 28  21944.951745  13326.849995   6962.792907    589.084767                    
V 28  -8462.620619   -655.723910  30502.700712     -0.058152                    
P 29  -4337.686313 -26168.852283   -816.742260   -327.324875                    
V 29   2243.147472    577.310720 -32277.271124     -0.067040                    
P 30  12972.504519   9280.633074  21309.254640   -410.726571                    
V 30 -19464.213161  18718.804208   3474.753394     -0.052835                    
P 31 -19811.438891   1280.113848 -17945.085987   -110.699546                    
V 31  15390.060028 -16420.613554 -17788.862867     -0.022314                    
P 32 -15185.369963 -15886.899265 -14928.886231     22.070369                    
V 32  -3012.895308 -18956.426054  22904.001710      0.000963                    
EOF
